STARLINK-35376          
1 66018U 25232P   25310.91668981  .00096665  00000+0  17290-2 0  9996
2 66018  53.1590 316.3904 0001592  89.6696  41.7201 15.49236456  3792
STARLINK-35382          
1 66019U 25232Q   25310.91668981  .00091210  00000+0  16327-2 0  9998
2 66019  53.1590 316.4018 0001556  92.0777  33.5560 15.49243224  3796
STARLINK-35430          
1 66020U 25232R   25310.91668981 -.02018212  00000+0 -41682-1 0  9996
2 66020  53.1593 316.3788 0001472  84.4147  52.5121 15.48611053  3788
STARLINK-35432          
1 66021U 25232S   25310.91668981 -.02015202  00000+0 -46342-1 0  9991
2 66021  53.1595 316.3939 0001198  75.3128  54.2280 15.45534524  3714
STARLINK-35340          
1 66022U 25232T   25310.91668981  .00007485  00000+0  14281-3 0  9991
2 66022  53.1592 316.3741 0001141 103.3112  35.7487 15.49248250  3788
STARLINK-35394          
1 66023U 25232U   25310.91668981  .00088419  00000+0  15844-2 0  9993
2 66023  53.1591 316.3696 0001240 105.8869  35.1045 15.49227707  3781
STARLINK-35410          
1 66024U 25232V   25310.91668981  .00086992  00000+0  15589-2 0  9994
2 66024  53.1591 316.3616 0001444 100.7012  44.1052 15.49234894  3787
STARLINK-35280          
1 66025U 25232W   25310.91668981 -.00020599  00000+0 -36301-3 0  9994
2 66025  53.1591 316.3655 0001317  85.1607  57.7684 15.49329439  3721
STARLINK-34812          
1 66026U 25232X   25310.91668981  .00093186  00000+0  16678-2 0  9999
2 66026  53.1592 316.3585 0001564  87.3650  59.3551 15.49237980  3732
STARLINK-35341          
1 66027U 25232Y   25310.91668981 -.00844896  00000+0 -16284-1 0  9996
2 66027  53.1590 316.0309 0001556  89.1554 219.8758 15.49900017  3781
STARLINK-35339          
1 66028U 25232Z   25310.91668981 -.00635990  00000+0 -12214-1 0  9999
2 66028  53.1589 316.0269 0001548  87.9265 223.1688 15.49702018  3726
STARLINK-35399          
1 66029U 25232AA  25310.91668981 -.00643601  00000+0 -12369-1 0  9999
2 66029  53.1588 316.0233 0001545  85.3514 227.6541 15.49710669  3721
