CCSDS_OMM_VERS = 2.0
CREATION_DATE  = 
ORIGINATOR     = 

OBJECT_NAME    = STARLINK-35376
OBJECT_ID      = 2025-232P
CENTER_NAME    = EARTH
REF_FRAME      = TEME
TIME_SYSTEM    = UTC
MEAN_ELEMENT_THEORY = SGP/SGP4

EPOCH          = 2025-11-06T22:00:01.999584
MEAN_MOTION    = 15.49236456
ECCENTRICITY   = .0001592
INCLINATION    = 53.1590
RA_OF_ASC_NODE = 316.3904
ARG_OF_PERICENTER = 89.6696
MEAN_ANOMALY   = 41.7201

EPHEMERIS_TYPE = 0
CLASSIFICATION_TYPE = U
NORAD_CAT_ID   = 66018
ELEMENT_SET_NO = 999
REV_AT_EPOCH   = 379
BSTAR          = .17290376E-2
MEAN_MOTION_DOT = .96665E-3
MEAN_MOTION_DDOT = 0

CCSDS_OMM_VERS = 2.0
CREATION_DATE  = 
ORIGINATOR     = 

OBJECT_NAME    = STARLINK-35382
OBJECT_ID      = 2025-232Q
CENTER_NAME    = EARTH
REF_FRAME      = TEME
TIME_SYSTEM    = UTC
MEAN_ELEMENT_THEORY = SGP/SGP4

EPOCH          = 2025-11-06T22:00:01.999584
MEAN_MOTION    = 15.49243224
ECCENTRICITY   = .00015562
INCLINATION    = 53.1590
RA_OF_ASC_NODE = 316.4018
ARG_OF_PERICENTER = 92.0777
MEAN_ANOMALY   = 33.5560

EPHEMERIS_TYPE = 0
CLASSIFICATION_TYPE = U
NORAD_CAT_ID   = 66019
ELEMENT_SET_NO = 999
REV_AT_EPOCH   = 379
BSTAR          = .1632677E-2
MEAN_MOTION_DOT = .9121E-3
MEAN_MOTION_DDOT = 0

CCSDS_OMM_VERS = 2.0
CREATION_DATE  = 
ORIGINATOR     = 

OBJECT_NAME    = STARLINK-35430
OBJECT_ID      = 2025-232R
CENTER_NAME    = EARTH
REF_FRAME      = TEME
TIME_SYSTEM    = UTC
MEAN_ELEMENT_THEORY = SGP/SGP4

EPOCH          = 2025-11-06T22:00:01.999584
MEAN_MOTION    = 15.48611053
ECCENTRICITY   = .00014722
INCLINATION    = 53.1593
RA_OF_ASC_NODE = 316.3788
ARG_OF_PERICENTER = 84.4147
MEAN_ANOMALY   = 52.5121

EPHEMERIS_TYPE = 0
CLASSIFICATION_TYPE = U
NORAD_CAT_ID   = 66020
ELEMENT_SET_NO = 999
REV_AT_EPOCH   = 378
BSTAR          = -.41682034E-1
MEAN_MOTION_DOT = -.2018212E-1
MEAN_MOTION_DDOT = 0

CCSDS_OMM_VERS = 2.0
CREATION_DATE  = 
ORIGINATOR     = 

OBJECT_NAME    = STARLINK-35432
OBJECT_ID      = 2025-232S
CENTER_NAME    = EARTH
REF_FRAME      = TEME
TIME_SYSTEM    = UTC
MEAN_ELEMENT_THEORY = SGP/SGP4

EPOCH          = 2025-11-06T22:00:01.999584
MEAN_MOTION    = 15.45534524
ECCENTRICITY   = .00011984
INCLINATION    = 53.1595
RA_OF_ASC_NODE = 316.3939
ARG_OF_PERICENTER = 75.3128
MEAN_ANOMALY   = 54.2280

EPHEMERIS_TYPE = 0
CLASSIFICATION_TYPE = U
NORAD_CAT_ID   = 66021
ELEMENT_SET_NO = 999
REV_AT_EPOCH   = 371
BSTAR          = -.4634241E-1
MEAN_MOTION_DOT = -.2015202E-1
MEAN_MOTION_DDOT = 0

CCSDS_OMM_VERS = 2.0
CREATION_DATE  = 
ORIGINATOR     = 

OBJECT_NAME    = STARLINK-35340
OBJECT_ID      = 2025-232T
CENTER_NAME    = EARTH
REF_FRAME      = TEME
TIME_SYSTEM    = UTC
MEAN_ELEMENT_THEORY = SGP/SGP4

EPOCH          = 2025-11-06T22:00:01.999584
MEAN_MOTION    = 15.49248250
ECCENTRICITY   = .0001141
INCLINATION    = 53.1592
RA_OF_ASC_NODE = 316.3741
ARG_OF_PERICENTER = 103.3112
MEAN_ANOMALY   = 35.7487

EPHEMERIS_TYPE = 0
CLASSIFICATION_TYPE = U
NORAD_CAT_ID   = 66022
ELEMENT_SET_NO = 999
REV_AT_EPOCH   = 378
BSTAR          = .14280846E-3
MEAN_MOTION_DOT = .7485E-4
MEAN_MOTION_DDOT = 0

CCSDS_OMM_VERS = 2.0
CREATION_DATE  = 
ORIGINATOR     = 

OBJECT_NAME    = STARLINK-35394
OBJECT_ID      = 2025-232U
CENTER_NAME    = EARTH
REF_FRAME      = TEME
TIME_SYSTEM    = UTC
MEAN_ELEMENT_THEORY = SGP/SGP4

EPOCH          = 2025-11-06T22:00:01.999584
MEAN_MOTION    = 15.49227707
ECCENTRICITY   = .00012408
INCLINATION    = 53.1591
RA_OF_ASC_NODE = 316.3696
ARG_OF_PERICENTER = 105.8869
MEAN_ANOMALY   = 35.1045

EPHEMERIS_TYPE = 0
CLASSIFICATION_TYPE = U
NORAD_CAT_ID   = 66023
ELEMENT_SET_NO = 999
REV_AT_EPOCH   = 378
BSTAR          = .15843992E-2
MEAN_MOTION_DOT = .88419E-3
MEAN_MOTION_DDOT = 0

CCSDS_OMM_VERS = 2.0
CREATION_DATE  = 
ORIGINATOR     = 

OBJECT_NAME    = STARLINK-35410
OBJECT_ID      = 2025-232V
CENTER_NAME    = EARTH
REF_FRAME      = TEME
TIME_SYSTEM    = UTC
MEAN_ELEMENT_THEORY = SGP/SGP4

EPOCH          = 2025-11-06T22:00:01.999584
MEAN_MOTION    = 15.49234894
ECCENTRICITY   = .00014443
INCLINATION    = 53.1591
RA_OF_ASC_NODE = 316.3616
ARG_OF_PERICENTER = 100.7012
MEAN_ANOMALY   = 44.1052

EPHEMERIS_TYPE = 0
CLASSIFICATION_TYPE = U
NORAD_CAT_ID   = 66024
ELEMENT_SET_NO = 999
REV_AT_EPOCH   = 378
BSTAR          = .15588523E-2
MEAN_MOTION_DOT = .86992E-3
MEAN_MOTION_DDOT = 0

CCSDS_OMM_VERS = 2.0
CREATION_DATE  = 
ORIGINATOR     = 

OBJECT_NAME    = STARLINK-35280
OBJECT_ID      = 2025-232W
CENTER_NAME    = EARTH
REF_FRAME      = TEME
TIME_SYSTEM    = UTC
MEAN_ELEMENT_THEORY = SGP/SGP4

EPOCH          = 2025-11-06T22:00:01.999584
MEAN_MOTION    = 15.49329439
ECCENTRICITY   = .00013175
INCLINATION    = 53.1591
RA_OF_ASC_NODE = 316.3655
ARG_OF_PERICENTER = 85.1607
MEAN_ANOMALY   = 57.7684

EPHEMERIS_TYPE = 0
CLASSIFICATION_TYPE = U
NORAD_CAT_ID   = 66025
ELEMENT_SET_NO = 999
REV_AT_EPOCH   = 372
BSTAR          = -.3630062E-3
MEAN_MOTION_DOT = -.20599E-3
MEAN_MOTION_DDOT = 0

CCSDS_OMM_VERS = 2.0
CREATION_DATE  = 
ORIGINATOR     = 

OBJECT_NAME    = STARLINK-34812
OBJECT_ID      = 2025-232X
CENTER_NAME    = EARTH
REF_FRAME      = TEME
TIME_SYSTEM    = UTC
MEAN_ELEMENT_THEORY = SGP/SGP4

EPOCH          = 2025-11-06T22:00:01.999584
MEAN_MOTION    = 15.49237980
ECCENTRICITY   = .0001564
INCLINATION    = 53.1592
RA_OF_ASC_NODE = 316.3585
ARG_OF_PERICENTER = 87.3650
MEAN_ANOMALY   = 59.3551

EPHEMERIS_TYPE = 0
CLASSIFICATION_TYPE = U
NORAD_CAT_ID   = 66026
ELEMENT_SET_NO = 999
REV_AT_EPOCH   = 373
BSTAR          = .16677551E-2
MEAN_MOTION_DOT = .93186E-3
MEAN_MOTION_DDOT = 0

CCSDS_OMM_VERS = 2.0
CREATION_DATE  = 
ORIGINATOR     = 

OBJECT_NAME    = STARLINK-35341
OBJECT_ID      = 2025-232Y
CENTER_NAME    = EARTH
REF_FRAME      = TEME
TIME_SYSTEM    = UTC
MEAN_ELEMENT_THEORY = SGP/SGP4

EPOCH          = 2025-11-06T22:00:01.999584
MEAN_MOTION    = 15.49900017
ECCENTRICITY   = .0001556
INCLINATION    = 53.1590
RA_OF_ASC_NODE = 316.0309
ARG_OF_PERICENTER = 89.1554
MEAN_ANOMALY   = 219.8758

EPHEMERIS_TYPE = 0
CLASSIFICATION_TYPE = U
NORAD_CAT_ID   = 66027
ELEMENT_SET_NO = 999
REV_AT_EPOCH   = 378
BSTAR          = -.16284242E-1
MEAN_MOTION_DOT = -.844896E-2
MEAN_MOTION_DDOT = 0

CCSDS_OMM_VERS = 2.0
CREATION_DATE  = 
ORIGINATOR     = 

OBJECT_NAME    = STARLINK-35339
OBJECT_ID      = 2025-232Z
CENTER_NAME    = EARTH
REF_FRAME      = TEME
TIME_SYSTEM    = UTC
MEAN_ELEMENT_THEORY = SGP/SGP4

EPOCH          = 2025-11-06T22:00:01.999584
MEAN_MOTION    = 15.49702018
ECCENTRICITY   = .00015486
INCLINATION    = 53.1589
RA_OF_ASC_NODE = 316.0269
ARG_OF_PERICENTER = 87.9265
MEAN_ANOMALY   = 223.1688

EPHEMERIS_TYPE = 0
CLASSIFICATION_TYPE = U
NORAD_CAT_ID   = 66028
ELEMENT_SET_NO = 999
REV_AT_EPOCH   = 372
BSTAR          = -.12214454E-1
MEAN_MOTION_DOT = -.63599E-2
MEAN_MOTION_DDOT = 0

CCSDS_OMM_VERS = 2.0
CREATION_DATE  = 
ORIGINATOR     = 

OBJECT_NAME    = STARLINK-35399
OBJECT_ID      = 2025-232AA
CENTER_NAME    = EARTH
REF_FRAME      = TEME
TIME_SYSTEM    = UTC
MEAN_ELEMENT_THEORY = SGP/SGP4

EPOCH          = 2025-11-06T22:00:01.999584
MEAN_MOTION    = 15.49710669
ECCENTRICITY   = .00015452
INCLINATION    = 53.1588
RA_OF_ASC_NODE = 316.0233
ARG_OF_PERICENTER = 85.3514
MEAN_ANOMALY   = 227.6541

EPHEMERIS_TYPE = 0
CLASSIFICATION_TYPE = U
NORAD_CAT_ID   = 66029
ELEMENT_SET_NO = 999
REV_AT_EPOCH   = 372
BSTAR          = -.12368922E-1
MEAN_MOTION_DOT = -.643601E-2
MEAN_MOTION_DDOT = 0

